[{"OBJECT_NAME":"STARLINK-35671","OBJECT_ID":"2025-257N","EPOCH":"2026-03-09T17:27:29.284992","MEAN_MOTION":15.30194275,"ECCENTRICITY":0.00010701,"INCLINATION":53.1603,"RA_OF_ASC_NODE":216.5387,"ARG_OF_PERICENTER":78.877,"MEAN_ANOMALY":281.2351,"EPHEMERIS_TYPE":0,"CLASSIFICATION_TYPE":"U","NORAD_CAT_ID":66392,"ELEMENT_SET_NO":999,"REV_AT_EPOCH":1974,"BSTAR":0.00098113631,"MEAN_MOTION_DOT":0.00028807,"MEAN_MOTION_DDOT":0},{"OBJECT_NAME":"CZ-4B DEB","OBJECT_ID":"1999-057DZ","EPOCH":"2026-03-09T09:52:12.897696","MEAN_MOTION":15.33653758,"ECCENTRICITY":0.00127381,"INCLINATION":98.4932,"RA_OF_ASC_NODE":238.6814,"ARG_OF_PERICENTER":254.7139,"MEAN_ANOMALY":105.2693,"EPHEMERIS_TYPE":0,"CLASSIFICATION_TYPE":"U","NORAD_CAT_ID":26235,"ELEMENT_SET_NO":999,"REV_AT_EPOCH":38912,"BSTAR":0.0023807093,"MEAN_MOTION_DOT":0.00078286,"MEAN_MOTION_DDOT":0}]
